AEHF-4 (USA 288)        
1 43651U 18079A   26166.17419206 -.00000272  00000+0  00000+0 0  9995
2 43651   1.4314   3.8080 0060412 356.1706 258.6649  1.00273117 28275
BEIDOU-3 G1             
1 43683U 18085A   26166.14808582 -.00000107  00000+0  00000+0 0  9990
2 43683   2.8618  97.4369 0008070 349.0566  30.2170  1.00270421 28041
GSAT-29                 
1 43698U 18089A   26166.01786565  .00000090  00000+0  00000+0 0  9992
2 43698   0.0615 100.3645 0003279 336.9241 247.5030  1.00273290 27769
ES'HAIL 2               
1 43700U 18090A   26166.19285492  .00000148  00000+0  00000+0 0  9994
2 43700   0.0180   3.5947 0001569 120.8003 234.3029  1.00269595 27658
GEO-KOMPSAT-2A          
1 43823U 18100A   26166.00392058 -.00000339  00000+0  00000+0 0  9992
2 43823   0.0511 125.6739 0001774 320.0070 307.2938  1.00271543 27603
GSAT-11                 
1 43824U 18100B   26166.19608485 -.00000073  00000+0  00000+0 0  9992
2 43824   0.0361 252.3116 0007620 195.2631 320.5010  1.00270966 27455
GSAT-7A                 
1 43864U 18105A   26165.98982686  .00000000  00000+0  00000+0 0  9994
2 43864   0.0195  30.9552 0001907  31.5959 259.8279  1.00270026 27420
COSMOS 2533             
1 43867U 18107A   26166.20302918 -.00000034  00000+0  00000+0 0  9997
2 43867   0.0476 100.3144 0000667  14.0704 292.1771  1.00270333 27428
TJS-3                   
1 43874U 18110A   26165.71044126 -.00000212  00000+0  00000+0 0  9996
2 43874   2.5384  80.5210 0002101  83.7025 142.8008  1.00270992 27399
ZHONGXING-2D            
1 43920U 19001A   26166.21339502 -.00000333  00000+0  00000+0 0  9993
2 43920   0.0364 248.6196 0001456  88.5555 133.1640  1.00272310 54060
HELLAS-SAT 4 & SGS-1    
1 44034U 19007A   26165.83904726  .00000158  00000+0  00000+0 0  9993
2 44034   0.0725 130.5749 0005336  13.0583 100.5940  1.00270136 27342
GSAT-31                 
1 44035U 19007B   26166.19718829  .00000129  00000+0  00000+0 0  9999
2 44035   0.0703 259.9074 0001750 101.6362  20.7568  1.00273342 26947
NUSANTARA SATU          
1 44048U 19009A   26165.98725531 -.00000229  00000+0  00000+0 0  9991
2 44048   0.0492 151.8992 0004183 324.4080 288.3947  1.00270646 26745
ZHONGXING-6C            
1 44067U 19012A   26166.21348169 -.00000331  00000+0  00000+0 0  9995
2 44067   0.1137  78.9805 0013605 331.3619  60.4294  1.00272103 26721
WGS 10 (USA 291)        
1 44071U 19014A   26165.93805941  .00000052  00000+0  00000+0 0  9995
2 44071   0.0184  29.3987 0000462 282.6295 349.2161  1.00270687 26594
TIANLIAN 2-01           
1 44076U 19017A   26165.98911009 -.00000102  00000+0  00000+0 0  9998
2 44076   0.5344  83.1137 0000637  29.6207 223.6389  1.00270516 26625
ARABSAT-6A              
1 44186U 19021A   26165.97992338  .00000158  00000+0  00000+0 0  9998
2 44186   0.0548  16.7521 0001484 351.0176 278.7827  1.00271287 26135
BEIDOU-3 IGSO-1         
1 44204U 19023A   26157.95428288 -.00000215  00000+0  00000+0 0  9993
2 44204  58.6799  37.7569 0025434 225.6649  92.8731  1.00294886  7105
BEIDOU-2 G8             
1 44231U 19027A   26166.21634169 -.00000244  00000+0  00000+0 0  9995
2 44231   1.6520  74.4957 0010239 281.9515 129.4851  1.00271357 26062
YAMAL 601               
1 44307U 19031A   26166.19744828  .00000124  00000+0  00000+0 0  9991
2 44307   0.0140  39.3676 0002314  47.6696 296.5342  1.00270175 25907
AT&T T-16               
1 44333U 19034A   26165.95393218 -.00000110  00000+0  00000+0 0  9995
2 44333   0.0168  52.8036 0000917 244.2232 208.7830  1.00270085 25619
EUTELSAT 7C             
1 44334U 19034B   26166.18912824  .00000052  00000+0  00000+0 0  9996
2 44334   0.0734 175.7687 0002913 251.9707 270.8311  1.00269772  6812
BEIDOU-3 IGSO-2         
1 44337U 19035A   26165.62361995 -.00000071  00000+0  00000+0 0  9997
2 44337  55.2456 158.8849 0039904 216.4592 231.8306  1.00267330 25649
COSMOS 2539             
1 44457U 19048A   26166.19008159  .00000085  00000+0  00000+0 0  9991
2 44457   0.0380  90.3194 0000409 355.4919 258.0845  1.00269087 25206
EDRS-C                  
1 44475U 19049A   26166.14470580 -.00000258  00000+0  00000+0 0  9991
2 44475   0.0157  50.7049 0000047  71.0176 336.3147  1.00269921 25191
INTELSAT 39 (IS-39)     
1 44476U 19049B   26165.99002154  .00000039  00000+0  00000+0 0  9998
2 44476   0.0025 346.6493 0000948 326.8079   8.1815  1.00270489 25107
AMOS-17                 
1 44479U 19050A   26166.19112160  .00000113  00000+0  00000+0 0  9998
2 44479   0.0178 328.9690 0001566 149.9052 230.3949  1.00272129 25169
AEHF-5 (USA 292)        
1 44481U 19051A   26166.05322593 -.00000253  00000+0  00000+0 0  9996
2 44481   1.4564 336.0492 0066374   0.1124  39.3824  1.00274313 25247
EUTELSAT 5 WEST B       
1 44624U 19067A   26166.18678823 -.00000038  00000+0  00000+0 0  9997
2 44624   0.0630   2.4546 0002877  79.8249 243.4624  1.00272080 24411
TJS-4                   
1 44637U 19070A   26165.99041010 -.00000164  00000+0  00000+0 0  9995
2 44637   0.0186  32.2026 0004409   8.4067 302.6938  1.00268509 24512
BEIDOU-3 IGSO-3         
1 44709U 19073A   26136.81046384 -.00000217  00000+0  00000+0 0  9995
2 44709  54.8566 281.2355 0042953 189.4588 170.3676  1.00246251 24144
TIBA-1                  
1 44800U 19080A   26166.02475332  .00000161  00000+0  00000+0 0  9997
2 44800   0.0519   5.4050 0001778  90.1269 212.1803  1.00269566 24038
